[{"OBJECT_NAME":"SDA_1677","OBJECT_ID":"2025-230P","EPOCH":"2026-03-09T17:45:54.981216","MEAN_MOTION":13.84685183,"ECCENTRICITY":0.00034516,"INCLINATION":81.2982,"RA_OF_ASC_NODE":303.9556,"ARG_OF_PERICENTER":66.1356,"MEAN_ANOMALY":294.0162,"EPHEMERIS_TYPE":0,"CLASSIFICATION_TYPE":"U","NORAD_CAT_ID":65987,"ELEMENT_SET_NO":999,"REV_AT_EPOCH":2004,"BSTAR":0.00016358526,"MEAN_MOTION_DOT":1.96e-6,"MEAN_MOTION_DDOT":0},{"OBJECT_NAME":"FENGYUN 1C DEB","OBJECT_ID":"1999-025BMA","EPOCH":"2026-02-25T09:40:29.005536","MEAN_MOTION":14.063737,"ECCENTRICITY":0.01015807,"INCLINATION":99.023,"RA_OF_ASC_NODE":124.8264,"ARG_OF_PERICENTER":327.3456,"MEAN_ANOMALY":32.1457,"EPHEMERIS_TYPE":0,"CLASSIFICATION_TYPE":"U","NORAD_CAT_ID":31244,"ELEMENT_SET_NO":999,"REV_AT_EPOCH":58689,"BSTAR":0.00043338924,"MEAN_MOTION_DOT":7.04e-6,"MEAN_MOTION_DDOT":0}]
